{"version": 0.6, "generator": "Overpass API 0.7.59 e21c39fe", "osm3s": {"timestamp_osm_base": "2023-02-08T19:16:24Z", "copyright": "The data included in this document is from www.openstreetmap.org. The data is made available under ODbL."}, "elements": [{"type": "node", "id": 470868191, "lat": 34.0487063, "lon": -118.2584697, "tags": {"name": "Famima", "shop": "convenience"}}, {"type": "node", "id": 470912985, "lat": 34.0465653, "lon": -118.255797, "tags": {"addr:city": "Los Angeles", "addr:housenumber": "500", "addr:state": "CA", "addr:street": "West 7th Street", "brand": "7-Eleven", "brand:wikidata": "Q259340", "brand:wikipedia": "en:7-Eleven", "name": "7-Eleven", "opening_hours": "24/7", "shop": "convenience", "website": "www.7-eleven.com"}}, {"type": "node", "id": 543990135, "lat": 34.0423688, "lon": -118.2558001, "tags": {"name": "Gary Leonard Take My Picture", "shop": "photo"}}, {"type": "node", "id": 543990352, "lat": 34.0417021, "lon": -118.2554451, "tags": {"name": "Sara Palacios Gallery", "shop": "photo"}}, {"type": "node", "id": 607992177, "lat": 34.0511984, "lon": -118.2481051, "tags": {"brand": "T-Mobile", "brand:wikidata": "Q327634", "brand:wikipedia": "en:T-Mobile", "name": "T-Mobile", "shop": "mobile_phone", "source": "survey;image;usgs_imagery", "source_ref": "AM909_DSCR0364"}}, {"type": "node", "id": 1435041908, "lat": 34.0502826, "lon": -118.2405204, "tags": {"addr:housenumber": "309", "addr:postcode": "90012", "addr:street": "E. 1st St.", "name": "Anzen Hardware", "shop": "doityourself"}}, {"type": "node", "id": 1435041909, "lat": 34.0500826, "lon": -118.2402401, "tags": {"addr:housenumber": "321", "addr:postcode": "90012", "addr:street": "E. 1st St.", "name": "Video Paradise", "shop": "video"}}, {"type": "node", "id": 2096809590, "lat": 34.0473884, "lon": -118.249404, "tags": {"addr:country": "US", "name": "Buzz Wine Beer Shop", "shop": "alcohol", "wheelchair": "yes"}}, {"type": "node", "id": 2096811182, "lat": 34.0478111, "lon": -118.2477037, "tags": {"addr:city": "Los Angeles", "addr:housenumber": "413", "addr:postcode": "90013", "addr:state": "CA", "addr:street": "South Main Street", "level": "0", "name": "Big Man Bakes", "opening_hours": "Mo-Th 08:00-22:00; Fr 08:00-24:00; Sa 10:00-24:00; Su off", "phone": "+1 213-617-9100", "shop": "bakery", "website": "http://bigmanbakes.com", "wheelchair": "yes"}}, {"type": "node", "id": 2163540658, "lat": 34.0490066, "lon": -118.2502037, "tags": {"name": "DTLA Bikes", "shop": "bicycle", "website": "http://dtlabikes.com/"}}, {"type": "node", "id": 2163540659, "lat": 34.0483953, "lon": -118.2507814, "tags": {"addr:city": "Los Angeles", "addr:country": "US", "addr:housenumber": "449", "addr:postcode": "90013", "addr:state": "CA", "addr:street": "South Broadway", "name": "Fallas Paredes", "phone": "213-532-8901", "shop": "department_store", "website": "http://www.factory2-u.com"}}, {"type": "node", "id": 2163540712, "lat": 34.0490404, "lon": -118.2512542, "tags": {"email": "info@silvercity.com", "fax": "213.489.7922", "name": "Silver City Jewelry", "opening_hours": "Mo-Fr 08:00 - 17:15", "phone": "213.689.1488", "shop": "jewelry", "website": "https://www.silvercity.com/"}}, {"type": "node", "id": 2163606596, "lat": 34.0470426, "lon": -118.2524103, "tags": {"email": "Allen@aajewelry.com", "name": "A&A Jewelry Supply", "opening_hours": "Mo-Fr 9:00-17:30; Sa 10:00-16:00", "phone": "1-800-433-5544", "shop": "jewelry", "website": "https://www.aajewelry.com/"}}, {"type": "node", "id": 2163606602, "lat": 34.0469244, "lon": -118.252064, "tags": {"addr:country": "US", "name": "Drs. Balfour & Shapiro", "phone": "+1 213-627-5911", "shop": "optician", "website": "https://www.balfourshapiro.com/"}}, {"type": "node", "id": 2163606603, "lat": 34.0469244, "lon": -118.2522555, "tags": {"addr:housenumber": "309", "addr:street": "6th Street", "name": "Gaby Jewelry Supplies", "opening_hours": "Mo-Sa 09:30-17:00", "phone": "+1 213-891-9004", "shop": "jewelry", "website": "http://www.facebook.com/pages/Gaby-Jewelry-Supplies/269963357874"}}, {"type": "node", "id": 2163606608, "lat": 34.0471679, "lon": -118.251898, "tags": {"name": "Hartfield's Jewelers", "shop": "jewelry", "website": "http://www.hartfield.bigcartel.com/"}}, {"type": "node", "id": 2163606612, "lat": 34.0476677, "lon": -118.2514503, "tags": {"name": "Luxury Perfumes Wholesale", "shop": "beauty"}}, {"type": "node", "id": 2163606663, "lat": 34.0475425, "lon": -118.2515913, "tags": {"addr:country": "US", "name": "Shoe Hut", "phone": "(213) 688 - 8310", "shop": "shoes", "website": "http://www.shoehutusa.com/location_4.html"}}, {"type": "node", "id": 2163606665, "lat": 34.0480735, "lon": -118.2510057, "tags": {"addr:country": "US", "brand": "7-Eleven", "brand:wikidata": "Q259340", "brand:wikipedia": "en:7-Eleven", "name": "7-Eleven", "shop": "convenience", "website": "https://www.7-eleven.com/"}}, {"type": "node", "id": 2163661645, "lat": 34.0466547, "lon": -118.252324, "tags": {"name": "Broadway Gold Center", "shop": "jewelry", "website": "http://www.broadwaygold.com/"}}, {"type": "node", "id": 2163661650, "lat": 34.0465859, "lon": -118.2523928, "tags": {"name": "L.A Noosha", "opening_hours": "Mo-Sa 09:00-18:00; Su 9:15-18:00", "phone": "+1 213-488-1225", "shop": "jewelry", "website": "http://www.facebook.com/pages/LA-Noosha/180739188631876"}}, {"type": "node", "id": 2163769539, "lat": 34.0442976, "lon": -118.2545104, "tags": {"brand": "Rainbow", "brand:wikidata": "Q7284708", "brand:wikipedia": "en:Rainbow Shops", "name": "Rainbow", "shop": "clothes", "website": "https://www.rainbowshops.com/"}}, {"type": "node", "id": 2163993804, "lat": 34.0426493, "lon": -118.2554565, "tags": {"name": "Optometric Eye Institute", "opening_hours": "Mo-Fr 9:30-17:30; Sa 9:30-16:30", "phone": "213-627-9771", "shop": "optician", "website": "http://www.optometriceyeinstitute.net/"}}, {"type": "node", "id": 2164095342, "lat": 34.0452538, "lon": -118.253023, "tags": {"name": "Ace Jewelry & Loan", "opening_hours": "Mo-Fr 9:00-17:30; Sa-Su 10:00-16:30", "phone": "(213) 622-3333", "shop": "jewelry", "website": "https://www.kingspawn.com/"}}, {"type": "node", "id": 2164203479, "lat": 34.0471647, "lon": -118.2512047, "tags": {"addr:country": "US", "name": "Audio Video Plaza Inc", "shop": "electronics", "website": "http://profile.reliableplaces.com/CA/Los+Angeles/Electronic+Parts+Supplier/Audio+Video+Plaza+Inc", "wheelchair": "yes"}}, {"type": "node", "id": 2164323121, "lat": 34.0512151, "lon": -118.2474791, "tags": {"email": "info@basicflowersla.com", "name": "basic flowers", "opening_hours": "Mo-Fr 8:00-18:00", "phone": "213 995-3333", "shop": "florist", "website": "http://basicflowersla.com/"}}, {"type": "node", "id": 2323432629, "lat": 34.0503752, "lon": -118.242284, "tags": {"addr:city": "Los Angeles", "addr:housenumber": "123", "addr:postcode": "90012", "addr:state": "CA", "addr:street": "Astronaut Ellison S Onizuka Street", "addr:unit": "Unit 205", "email": "los_angeles@kinokuniya.com", "name": "Kinokuniya", "opening_hours": "11:00-20:00", "phone": "+1 213-687-4480", "shop": "books"}}, {"type": "node", "id": 2323432632, "lat": 34.0476682, "lon": -118.2497228, "tags": {"addr:city": "Los Angeles", "addr:country": "US", "addr:housenumber": "453", "addr:postcode": "90013", "addr:state": "CA", "addr:street": "South Spring Street", "name": "The Last Bookstore", "opening_hours": "Mo-Su 11:00-20:00", "shop": "books", "website": "https://www.lastbookstorela.com/", "wheelchair": "limited", "wikidata": "Q25831410", "wikipedia": "en:The Last Bookstore"}}, {"type": "node", "id": 2895290578, "lat": 34.0480534, "lon": -118.2591805}, {"type": "node", "id": 2895290580, "lat": 34.0483057, "lon": -118.2584838}, {"type": "node", "id": 3445765297, "lat": 34.0489229, "lon": -118.2401754, "tags": {"addr:country": "US", "addr:housenumber": "123", "addr:street": "Japanese Village Plaza Mall", "name": "Yamazaki Bakery", "opening_hours": "Mo-Su 07:00-20:00", "phone": "213-624-2773", "shop": "bakery", "website": "https://www.yamazakipan.co.jp/"}}, {"type": "node", "id": 3905714571, "lat": 34.0421045, "lon": -118.2560662, "tags": {"addr:city": "Los Angeles", "addr:housenumber": "900", "addr:postcode": "90015", "addr:state": "CA", "addr:street": "South Broadway", "level": "0", "name": "Broadway Market", "shop": "convenience", "source": "survey"}}, {"type": "node", "id": 3905774489, "lat": 34.0436122, "lon": -118.2541694, "tags": {"addr:city": "Los Angeles", "addr:housenumber": "221", "addr:postcode": "90014", "addr:state": "CA", "addr:street": "West 8th Street", "level": "0", "name": "Chapman Market", "phone": "+1 213 4894080", "shop": "convenience", "source": "survey"}}, {"type": "node", "id": 3905940970, "lat": 34.0419756, "lon": -118.2561963, "tags": {"addr:city": "Los Angeles", "addr:housenumber": "910", "addr:postcode": "90015", "addr:state": "CA", "addr:street": "South Broadway", "level": "0", "name": "OAK Los Angeles", "phone": "+1 213 6224600", "shop": "clothes", "source": "survey"}}, {"type": "node", "id": 3967578956, "lat": 34.0458779, "lon": -118.2576698, "tags": {"addr:city": "Los Angeles", "addr:housenumber": "788", "addr:postcode": "90017", "addr:state": "CA", "addr:street": "South Grand Avenue", "brand": "Whole Foods Market", "brand:wikidata": "Q1809448", "brand:wikipedia": "en:Whole Foods Market", "name": "Whole Foods Market", "phone": "+1 213 8734745", "shop": "supermarket"}}, {"type": "node", "id": 4096326965, "lat": 34.0423945, "lon": -118.2504777, "tags": {"addr:city": "Los Angeles", "addr:housenumber": "716", "addr:postcode": "90014", "addr:street": "South Los Angeles Street", "name": "Santee Court Market", "shop": "convenience"}}, {"type": "node", "id": 4096439885, "lat": 34.0407449, "lon": -118.2549069, "tags": {"addr:city": "Los Angeles", "addr:housenumber": "110", "addr:postcode": "90079", "addr:street": "East 9th Street", "name": "Jason's Wine & Spirits", "shop": "alcohol", "website": "http://jasonsliquor.com/"}}, {"type": "node", "id": 4098463767, "lat": 34.0427771, "lon": -118.2528969, "tags": {"addr:city": "Los Angeles", "addr:housenumber": "756", "addr:postcode": "90014", "addr:street": "South Main Street", "name": "Wax Candy", "shop": "beauty"}}, {"type": "node", "id": 4098463772, "lat": 34.0424326, "lon": -118.2534038, "tags": {"addr:city": "Los Angeles", "addr:housenumber": "806", "addr:postcode": "90014", "addr:street": "South Main Street", "name": "El Maestro Bicycle Shop", "shop": "bicycle"}}, {"type": "node", "id": 4101041603, "lat": 34.0422233, "lon": -118.2521533, "tags": {"addr:city": "Los Angeles", "addr:housenumber": "761", "addr:postcode": "90014", "addr:street": "South Los Angeles Street", "name": "Nino Ferretti", "shop": "clothes"}}, {"type": "node", "id": 4101045061, "lat": 34.0423499, "lon": -118.2519387, "tags": {"addr:city": "Los Angeles", "addr:housenumber": "751", "addr:postcode": "90014", "addr:street": "South Los Angeles Street", "name": "Paolo Cellini", "shop": "clothes"}}, {"type": "node", "id": 4101045062, "lat": 34.0423055, "lon": -118.2520084, "tags": {"addr:city": "Los Angeles", "addr:housenumber": "755", "addr:postcode": "90014", "addr:street": "South Los Angeles Street", "name": "Universal Perfumes", "shop": "beauty"}}, {"type": "node", "id": 4101049502, "lat": 34.0419077, "lon": -118.2520621, "tags": {"addr:city": "Los Angeles", "addr:housenumber": "772", "addr:postcode": "90014", "addr:street": "South Los Angeles Street", "name": "Italian Corner", "shop": "clothes"}}, {"type": "node", "id": 4101049906, "lat": 34.0419499, "lon": -118.2520057, "tags": {"addr:city": "Los Angeles", "addr:housenumber": "770", "addr:postcode": "90014", "addr:street": "South Los Angeles Street", "name": "Sam's Leather", "shop": "clothes"}}, {"type": "node", "id": 4101050116, "lat": 34.042001, "lon": -118.2519441, "tags": {"addr:city": "Los Angeles", "addr:housenumber": "768", "addr:postcode": "90014", "addr:street": "South Los Angeles Street", "name": "Gila's Fabric Inc.", "shop": "fabric"}}, {"type": "node", "id": 4101051511, "lat": 34.042041, "lon": -118.2518689, "tags": {"addr:city": "Los Angeles", "addr:housenumber": "758", "addr:postcode": "90014", "addr:street": "South Los Angeles Street", "name": "Perfume Center", "shop": "beauty"}}, {"type": "node", "id": 4101051550, "lat": 34.0420966, "lon": -118.2517965, "tags": {"addr:city": "Los Angeles", "addr:housenumber": "756", "addr:postcode": "90014", "addr:street": "South Los Angeles Street", "name": "Suit Fellas", "shop": "clothes"}}, {"type": "node", "id": 4101066584, "lat": 34.0416787, "lon": -118.2504232, "tags": {"addr:city": "Los Angeles", "addr:housenumber": "741", "addr:postcode": "90014", "addr:street": "Maple Avenue", "name": "Beads andTrims", "shop": "craft"}}, {"type": "node", "id": 4101081498, "lat": 34.0411653, "lon": -118.2509811, "tags": {"addr:city": "Los Angeles", "addr:housenumber": "767", "addr:postcode": "90014", "addr:street": "Maple Avenue", "name": "American Lion Autobuses", "shop": "travel_agency"}}, {"type": "node", "id": 4101086197, "lat": 34.0410275, "lon": -118.2511474, "tags": {"addr:city": "Los Angeles", "addr:housenumber": "315", "addr:postcode": "90014", "addr:street": "East 8th Street", "name": "Chic Events Depot.", "shop": "decor,_event_planning"}}, {"type": "node", "id": 4101087835, "lat": 34.0413187, "lon": -118.2514398, "tags": {"addr:city": "Los Angeles", "addr:housenumber": "305", "addr:postcode": "90014", "addr:street": "East 8th Street", "name": "Fabric Planet", "shop": "fabric"}}, {"type": "node", "id": 4101089551, "lat": 34.0417765, "lon": -118.2519441, "tags": {"addr:city": "Los Angeles", "addr:housenumber": "207", "addr:postcode": "90014", "addr:street": "East 8th Street", "name": "Best Sewing Machine", "shop": "service,_rent,_repair,_everything,_computer_box"}}, {"type": "node", "id": 4116096407, "lat": 34.0452712, "lon": -118.2497052, "tags": {"addr:city": "Los Angeles", "addr:housenumber": "564", "addr:state": "CA", "addr:street": "South Main Street", "name": "Pussy & Pooch Pethouse and Pawbar", "shop": "pet"}}, {"type": "node", "id": 4116109560, "lat": 34.0440313, "lon": -118.2483918, "tags": {"addr:city": "Los Angeles", "addr:state": "CA", "addr:street": "East 6th Street", "name": "YuYu Hosiery", "shop": "clothes"}}, {"type": "node", "id": 4116148820, "lat": 34.0408686, "lon": -118.2434627, "tags": {"addr:city": "Los Angeles", "addr:housenumber": "700", "addr:state": "CA", "addr:street": "East 6th Street", "name": "Pacific Fresh Fish Co.", "shop": "seafood"}}, {"type": "node", "id": 4116163686, "lat": 34.0400718, "lon": -118.2420983, "tags": {"addr:city": "Los Angeles", "addr:state": "CA", "addr:street": "Gladys Avenue", "name": "R & P Seafood", "shop": "seafood"}}, {"type": "node", "id": 4116646345, "lat": 34.0472594, "lon": -118.246478, "tags": {"addr:city": "Los Angeles", "addr:country": "US", "addr:state": "CA", "addr:street": "East 4th Street", "name": "Viki Crafts", "shop": "gift"}}, {"type": "node", "id": 4116685299, "lat": 34.0470369, "lon": -118.2460826, "tags": {"addr:city": "Los Angeles", "addr:state": "CA", "addr:street": "East 4th Street", "name": "Pao Hua Perfumes & Cosmetics", "shop": "cosmetics"}}, {"type": "node", "id": 4116693119, "lat": 34.0469857, "lon": -118.2459932, "tags": {"addr:city": "Los Angeles", "addr:country": "US", "addr:state": "CA", "addr:street": "East 4th Street", "name": "UV Vision Inc.", "shop": "optician"}}, {"type": "node", "id": 4116710780, "lat": 34.0467524, "lon": -118.2450709, "tags": {"addr:city": "Los Angeles", "addr:housenumber": "233", "addr:state": "CA", "addr:street": "East 4th Street", "name": "CAL Toys", "shop": "toys"}}, {"type": "node", "id": 4116725952, "lat": 34.0462396, "lon": -118.2445918, "tags": {"addr:city": "Los Angeles", "addr:state": "CA", "addr:street": "East 4th Street", "name": "TPN Toy Co.", "shop": "toys"}}, {"type": "node", "id": 4116738116, "lat": 34.0463867, "lon": -118.2441191, "tags": {"addr:city": "Los Angeles", "addr:housenumber": "305", "addr:state": "CA", "addr:street": "East 4th Street", "name": "Price Check", "shop": "gift"}}, {"type": "node", "id": 4116756584, "lat": 34.0461765, "lon": -118.2443849, "tags": {"addr:city": "Los Angeles", "addr:housenumber": "308", "addr:state": "CA", "addr:street": "East 4th Street", "name": "Bebemio Inc.", "shop": "baby_goods"}}, {"type": "node", "id": 4116769713, "lat": 34.0459455, "lon": -118.2439807, "tags": {"addr:city": "Los Angeles", "addr:housenumber": "318", "addr:state": "CA", "addr:street": "East 4th Street", "name": "Downtown Baby", "shop": "toys"}}, {"type": "node", "id": 4121132652, "lat": 34.0459494, "lon": -118.25589, "tags": {"name": "Gregs Deli", "shop": "coffee"}}, {"type": "node", "id": 4121132658, "lat": 34.0466454, "lon": -118.2552619, "tags": {"name": "L.A. Optical Gallery", "shop": "optician", "website": "https://www.facebook.com/LAOpticalGallery/"}}, {"type": "node", "id": 4121132659, "lat": 34.0460202, "lon": -118.2558289, "tags": {"name": "LA Jewelry mart", "shop": "jewelry"}}, {"type": "node", "id": 4121132661, "lat": 34.046858, "lon": -118.2539412, "tags": {"name": "Los Angeles Jewelry center", "shop": "mall"}}, {"type": "node", "id": 4121132664, "lat": 34.0467585, "lon": -118.255161, "tags": {"name": "Royals Cigarette", "shop": "tobacco"}}, {"type": "node", "id": 4121132665, "lat": 34.0462898, "lon": -118.2543752, "tags": {"name": "Theatter Jewelry Center", "shop": "jewelry"}}, {"type": "node", "id": 4207527895, "lat": 34.0413478, "lon": -118.2519522, "tags": {"addr:city": "Los Angeles", "addr:housenumber": "214", "addr:postcode": "90014", "addr:state": "CA", "addr:street": "East 8th Street", "contact:fax": "2136220142", "contact:phone": "2136228346", "description": "Wholesale Distributor Everything in store for sewing!", "name": "Ace Sewing Machine & Thread Supply Co.", "shop": "hardware"}}, {"type": "node", "id": 4209682053, "lat": 34.0417145, "lon": -118.2523749, "tags": {"addr:city": "Los Angeles", "addr:housenumber": "800", "addr:postcode": "90014", "addr:state": "CA", "addr:street": "South Los Angeles Street", "name": "Perfumeria Starlux", "shop": "beauty"}}, {"type": "node", "id": 4209682054, "lat": 34.0416234, "lon": -118.2522381, "tags": {"addr:city": "Los Angeles", "addr:housenumber": "206", "addr:postcode": "90014", "addr:state": "CA", "addr:street": "East 8th Street", "name": "Gilbert's Tailor Shop", "shop": "tailor"}}, {"type": "node", "id": 4209682055, "lat": 34.0414745, "lon": -118.2520905, "tags": {"addr:city": "Los Angeles", "addr:housenumber": "212", "addr:postcode": "90014", "addr:state": "CA", "addr:street": "East 8th Street", "name": "Carmen's Snack Shop", "shop": "convenience"}}, {"type": "node", "id": 4209682081, "lat": 34.0410783, "lon": -118.2512054, "tags": {"addr:city": "Los Angeles", "addr:housenumber": "312", "addr:postcode": "90014", "addr:state": "CA", "addr:street": "East 8th Street", "name": "Charmed", "shop": "yes"}}, {"type": "node", "id": 4209682190, "lat": 34.0426904, "lon": -118.2493577, "tags": {"addr:city": "Los Angeles", "addr:housenumber": "231", "addr:postcode": "90014", "addr:state": "CA", "addr:street": "East 7th Street", "name": "Manteleria Guadalupe's", "shop": "fabric"}}, {"type": "node", "id": 4209682191, "lat": 34.0426708, "lon": -118.249314, "tags": {"addr:city": "Los Angeles", "addr:housenumber": "239", "addr:postcode": "90014", "addr:state": "CA", "addr:street": "East 7th Street", "shop": "vacant"}}, {"type": "node", "id": 4209682192, "lat": 34.0426195, "lon": -118.2492412, "tags": {"addr:city": "Los Angeles", "addr:housenumber": "241", "addr:postcode": "90014", "addr:state": "CA", "addr:street": "East 7th Street", "name": "New Downtown Cafe & Market", "shop": "convenience"}}, {"type": "node", "id": 4209682193, "lat": 34.0428653, "lon": -118.2496087, "tags": {"addr:city": "Los Angeles", "addr:housenumber": "215 #E", "addr:postcode": "90014", "addr:state": "CA", "addr:street": "East 7th Street", "name": "Electronics Store Repair", "shop": "electronics"}}, {"type": "node", "id": 4209682194, "lat": 34.042921, "lon": -118.2496761, "tags": {"addr:city": "Los Angeles", "addr:housenumber": "215 #D", "addr:postcode": "90014", "addr:state": "CA", "addr:street": "East 7th Street", "name": "Ron Bros.", "shop": "tailor"}}, {"type": "node", "id": 4209682195, "lat": 34.0429768, "lon": -118.2497688, "tags": {"addr:city": "Los Angeles", "addr:housenumber": "215 #C", "addr:postcode": "90014", "addr:state": "CA", "addr:street": "East 7th Street", "name": "Newport Perfume Inc.", "shop": "beauty"}}, {"type": "node", "id": 4209682196, "lat": 34.0430341, "lon": -118.2498453, "tags": {"addr:city": "Los Angeles", "addr:housenumber": "215 #B", "addr:postcode": "90014", "addr:state": "CA", "addr:street": "East 7th Street", "name": "Orellana's Tailor", "shop": "tailor"}}, {"type": "node", "id": 4209682197, "lat": 34.0430929, "lon": -118.249928, "tags": {"addr:city": "Los Angeles", "addr:housenumber": "215 #A", "addr:postcode": "90014", "addr:state": "CA", "addr:street": "East 7th Street", "shop": "vacant"}}, {"type": "node", "id": 4209682198, "lat": 34.0431306, "lon": -118.249989, "tags": {"addr:city": "Los Angeles", "addr:housenumber": "213", "addr:postcode": "90014", "addr:state": "CA", "addr:street": "East 7th Street", "name": "Elite Textile Inc.", "shop": "fabric"}}, {"type": "node", "id": 4209682199, "lat": 34.0432587, "lon": -118.2506785, "tags": {"addr:city": "Los Angeles", "addr:housenumber": "701", "addr:postcode": "90014", "addr:state": "CA", "addr:street": "South Los Angeles Street", "name": "New York Town", "shop": "clothes"}}, {"type": "node", "id": 4209682200, "lat": 34.0431819, "lon": -118.2507913, "tags": {"addr:city": "Los Angeles", "addr:housenumber": "707", "addr:postcode": "90014", "addr:state": "CA", "addr:street": "South Los Angeles Street", "name": "Marcel's", "shop": "clothes"}}, {"type": "node", "id": 4209697717, "lat": 34.0431667, "lon": -118.2508401, "tags": {"addr:city": "Los Angeles", "addr:housenumber": "709", "addr:postcode": "90014", "addr:state": "CA", "addr:street": "South Los Angeles Street", "name": "Silk & Leather Collection", "shop": "clothes"}}, {"type": "node", "id": 4209697718, "lat": 34.0431289, "lon": -118.2508749, "tags": {"addr:city": "Los Angeles", "addr:housenumber": "711", "addr:postcode": "90014", "addr:state": "CA", "addr:street": "South Los Angeles Street", "name": "Suit 4 Less", "shop": "clothes"}}, {"type": "node", "id": 4209706147, "lat": 34.0430311, "lon": -118.2510171, "tags": {"addr:city": "Los Angeles", "addr:housenumber": "713", "addr:postcode": "90014", "addr:state": "CA", "addr:street": "South Los Angeles Street", "name": "Money Ruins Everything", "shop": "yes"}}, {"type": "node", "id": 4209706148, "lat": 34.0430044, "lon": -118.251052, "tags": {"addr:city": "Los Angeles", "addr:housenumber": "715", "addr:postcode": "90014", "addr:state": "CA", "addr:street": "South Los Angeles Street", "name": "Henry Duarte", "shop": "clothes"}}, {"type": "node", "id": 4209706149, "lat": 34.0429577, "lon": -118.2511056, "tags": {"addr:city": "Los Angeles", "addr:housenumber": "717", "addr:postcode": "90014", "addr:state": "CA", "addr:street": "South Los Angeles Street", "name": "New Warehouse", "shop": "clothes"}}, {"type": "node", "id": 4209706150, "lat": 34.0428844, "lon": -118.2511968, "tags": {"addr:city": "Los Angeles", "addr:housenumber": "721", "addr:postcode": "90014", "addr:state": "CA", "addr:street": "South Los Angeles Street", "name": "Flagship", "shop": "clothes"}}, {"type": "node", "id": 4209706151, "lat": 34.0428666, "lon": -118.2512478, "tags": {"addr:city": "Los Angeles", "addr:housenumber": "723", "addr:postcode": "90014", "addr:state": "CA", "addr:street": "South Los Angeles Street", "name": "J. Valintin", "shop": "clothes"}}, {"type": "node", "id": 4209706152, "lat": 34.0427488, "lon": -118.2514006, "tags": {"addr:city": "Los Angeles", "addr:housenumber": "731", "addr:postcode": "90014", "addr:state": "CA", "addr:street": "South Los Angeles Street", "name": "Rogert Stuart Clothes, Inc.", "shop": "clothes"}}, {"type": "node", "id": 4209733989, "lat": 34.0423389, "lon": -118.2514601, "tags": {"addr:city": "Los Angeles", "addr:housenumber": "738 #3", "addr:postcode": "90014", "addr:state": "CA", "addr:street": "South Los Angeles Street", "shop": "houseware"}}, {"type": "node", "id": 4209733990, "lat": 34.0422685, "lon": -118.2515526, "tags": {"addr:city": "Los Angeles", "addr:housenumber": "746", "addr:postcode": "90014", "addr:state": "CA", "addr:street": "South Los Angeles Street", "shop": "clothes"}}, {"type": "node", "id": 4209859293, "lat": 34.0417476, "lon": -118.2513486, "tags": {"addr:city": "Los Angeles", "addr:housenumber": "767", "addr:postcode": "90014", "addr:state": "CA", "addr:street": "Santee Street", "name": "Be A Tall Poppy", "shop": "florist", "website": "https://beatallpoppy.com/"}}, {"type": "node", "id": 4209859297, "lat": 34.0416501, "lon": -118.2518319, "tags": {"addr:city": "Los Angeles", "addr:housenumber": "211", "addr:postcode": "90014", "addr:state": "CA", "addr:street": "East 8th Street", "name": "Cleaners DTLA", "shop": "dry_cleaning"}}, {"type": "node", "id": 4209859298, "lat": 34.041667, "lon": -118.2518563, "tags": {"addr:city": "Los Angeles", "addr:housenumber": "209", "addr:postcode": "90014", "addr:state": "CA", "addr:street": "East 8th Street", "shop": "clothes"}}, {"type": "node", "id": 4209859299, "lat": 34.0422209, "lon": -118.2516218, "tags": {"addr:city": "Los Angeles", "addr:housenumber": "746", "addr:postcode": "90014", "addr:state": "CA", "addr:street": "South Los Angeles Street", "name": "(Vacant)", "shop": "vacant"}}, {"type": "node", "id": 4209859300, "lat": 34.0423659, "lon": -118.2514329, "tags": {"addr:city": "Los Angeles", "addr:housenumber": "738 #3", "addr:postcode": "90014", "addr:state": "CA", "addr:street": "South Los Angeles Street", "name": "Perfume Warehouse", "shop": "beauty"}}, {"type": "node", "id": 4209859301, "lat": 34.0428314, "lon": -118.2512855, "tags": {"addr:city": "Los Angeles", "addr:housenumber": "725", "addr:postcode": "90014", "addr:state": "CA", "addr:street": "South Los Angeles Street", "name": "Blends", "shop": "shoes"}}, {"type": "node", "id": 4269938707, "lat": 34.0434441, "lon": -118.2399845, "tags": {"addr:city": "Los Angeles", "addr:country": "US", "addr:housenumber": "420", "addr:postcode": "90013", "addr:street": "Stanford Avenue", "name": "Los Angeles Fish Company", "shop": "seafood"}}, {"type": "node", "id": 4269938708, "lat": 34.0502168, "lon": -118.2422905, "tags": {"addr:city": "Los Angeles", "addr:country": "US", "addr:state": "CA", "name": "Marukai Market", "opening_hours": "Mo-Su 08:00-21:00", "payment:cash": "yes", "payment:contactless": "yes", "payment:credit_cards": "yes", "payment:debit_cards": "yes", "shop": "supermarket"}}, {"type": "node", "id": 4269938709, "lat": 34.0448135, "lon": -118.2388853, "tags": {"addr:city": "Los Angeles", "addr:country": "US", "addr:housenumber": "333", "addr:postcode": "90014", "addr:state": "CA", "addr:street": "South Alameda Street", "addr:unit": "100", "email": "info@littletokyomarket.com", "level": "1", "name": "Little Tokyo Market Place", "opening_hours": "Mo-Su 08:00-22:00", "phone": "+1-213-617-0030", "shop": "supermarket", "website": "https://www.littletokyomarket.com/"}}, {"type": "node", "id": 4269944101, "lat": 34.0491043, "lon": -118.2407385}, {"type": "node", "id": 4269944102, "lat": 34.049111, "lon": -118.2405519}, {"type": "node", "id": 4269944105, "lat": 34.0491164, "lon": -118.2407569}, {"type": "node", "id": 4269944126, "lat": 34.0491842, "lon": -118.2406612}, {"type": "node", "id": 4269944128, "lat": 34.0491881, "lon": -118.2404749}, {"type": "node", "id": 4269944131, "lat": 34.049195, "lon": -118.2404875}, {"type": "node", "id": 4269944159, "lat": 34.0492458, "lon": -118.2405652}, {"type": "node", "id": 4269944210, "lat": 34.0493273, "lon": -118.2410775}, {"type": "node", "id": 4269944275, "lat": 34.0494461, "lon": -118.240368}, {"type": "node", "id": 4269944279, "lat": 34.0494549, "lon": -118.2409612}, {"type": "node", "id": 4269944293, "lat": 34.0494969, "lon": -118.2409229}, {"type": "node", "id": 4269944312, "lat": 34.0495518, "lon": -118.2408742}, {"type": "node", "id": 4269944320, "lat": 34.0495903, "lon": -118.2409308}, {"type": "node", "id": 4269944323, "lat": 34.0496007, "lon": -118.2420419}, {"type": "node", "id": 4269944329, "lat": 34.049605, "lon": -118.2419895}, {"type": "node", "id": 4269944333, "lat": 34.049608, "lon": -118.2420552}, {"type": "node", "id": 4269944334, "lat": 34.0496114, "lon": -118.2419789}, {"type": "node", "id": 4269944335, "lat": 34.0496168, "lon": -118.2406279}, {"type": "node", "id": 4269944338, "lat": 34.0496206, "lon": -118.240635}, {"type": "node", "id": 4269944339, "lat": 34.049621, "lon": -118.2419679}, {"type": "node", "id": 4269944342, "lat": 34.0496294, "lon": -118.2419625}, {"type": "node", "id": 4269944349, "lat": 34.0496395, "lon": -118.2419582}, {"type": "node", "id": 4269944353, "lat": 34.049651, "lon": -118.2419578}, {"type": "node", "id": 4269944356, "lat": 34.049655, "lon": -118.2407797}, {"type": "node", "id": 4269944363, "lat": 34.0496666, "lon": -118.2419616}, {"type": "node", "id": 4269944364, "lat": 34.0496706, "lon": -118.2407647}, {"type": "node", "id": 4269944371, "lat": 34.0496926, "lon": -118.2408395}, {"type": "node", "id": 4269944440, "lat": 34.0498986, "lon": -118.2425351}, {"type": "node", "id": 4269944444, "lat": 34.0499011, "lon": -118.2425366}, {"type": "node", "id": 4269944447, "lat": 34.0499028, "lon": -118.2422319}, {"type": "node", "id": 4269944450, "lat": 34.0499191, "lon": -118.2421126}, {"type": "node", "id": 4269944460, "lat": 34.0499409, "lon": -118.2423249}, {"type": "node", "id": 4269944461, "lat": 34.0499424, "lon": -118.2422445}, {"type": "node", "id": 4269944463, "lat": 34.049943, "lon": -118.2422398}, {"type": "node", "id": 4269944467, "lat": 34.0499516, "lon": -118.2422464}, {"type": "node", "id": 4269944474, "lat": 34.0499702, "lon": -118.2422239}, {"type": "node", "id": 4269944480, "lat": 34.0499808, "lon": -118.24256}, {"type": "node", "id": 4269944481, "lat": 34.0499816, "lon": -118.242569}, {"type": "node", "id": 4269944483, "lat": 34.0499823, "lon": -118.2425522}, {"type": "node", "id": 4269944484, "lat": 34.0499837, "lon": -118.2421253}, {"type": "node", "id": 4269944485, "lat": 34.0499838, "lon": -118.2425802}, {"type": "node", "id": 4269944487, "lat": 34.0499873, "lon": -118.2425882}, {"type": "node", "id": 4269944493, "lat": 34.0499922, "lon": -118.2425969}, {"type": "node", "id": 4269944494, "lat": 34.0499977, "lon": -118.2426032}, {"type": "node", "id": 4269944496, "lat": 34.0500006, "lon": -118.2422299}, {"type": "node", "id": 4269944499, "lat": 34.0500061, "lon": -118.2426089}, {"type": "node", "id": 4269944505, "lat": 34.0500141, "lon": -118.2421306}, {"type": "node", "id": 4269944507, "lat": 34.0500154, "lon": -118.2426122}, {"type": "node", "id": 4269944512, "lat": 34.0500253, "lon": -118.242613}, {"type": "node", "id": 4269944519, "lat": 34.0500344, "lon": -118.2426115}, {"type": "node", "id": 4269944524, "lat": 34.0500435, "lon": -118.2426074}, {"type": "node", "id": 4269944528, "lat": 34.0500511, "lon": -118.2426016}, {"type": "node", "id": 4269944531, "lat": 34.0500573, "lon": -118.242595}, {"type": "node", "id": 4269944533, "lat": 34.0500624, "lon": -118.2425859}, {"type": "node", "id": 4269944534, "lat": 34.0500673, "lon": -118.2425687}, {"type": "node", "id": 4269944540, "lat": 34.0500804, "lon": -118.2421437}, {"type": "node", "id": 4269944541, "lat": 34.0500849, "lon": -118.2421537}, {"type": "node", "id": 4269944543, "lat": 34.0500888, "lon": -118.2423675}, {"type": "node", "id": 4269944544, "lat": 34.0500893, "lon": -118.242573}, {"type": "node", "id": 4269944545, "lat": 34.0500906, "lon": -118.2423545}, {"type": "node", "id": 4269944546, "lat": 34.0500913, "lon": -118.2421617}, {"type": "node", "id": 4269944550, "lat": 34.0500993, "lon": -118.2421691}, {"type": "node", "id": 4269944556, "lat": 34.0501075, "lon": -118.2421733}, {"type": "node", "id": 4269944562, "lat": 34.0501175, "lon": -118.242176}, {"type": "node", "id": 4269944566, "lat": 34.0501347, "lon": -118.2421761}, {"type": "node", "id": 4269944571, "lat": 34.0501424, "lon": -118.242174}, {"type": "node", "id": 4269944573, "lat": 34.050151, "lon": -118.2421695}, {"type": "node", "id": 4269944574, "lat": 34.0501519, "lon": -118.2423799}, {"type": "node", "id": 4269944577, "lat": 34.0501551, "lon": -118.242356}, {"type": "node", "id": 4269944578, "lat": 34.0501608, "lon": -118.2421596}, {"type": "node", "id": 4269944579, "lat": 34.0501636, "lon": -118.2423577}, {"type": "node", "id": 4269944582, "lat": 34.0501801, "lon": -118.2422373}, {"type": "node", "id": 4269944598, "lat": 34.0502148, "lon": -118.2425975}, {"type": "node", "id": 4269944603, "lat": 34.0502262, "lon": -118.2425997}, {"type": "node", "id": 4269944608, "lat": 34.0502386, "lon": -118.2422488}, {"type": "node", "id": 4269944610, "lat": 34.0502484, "lon": -118.2421765}, {"type": "node", "id": 4269944617, "lat": 34.050269, "lon": -118.2425629}, {"type": "node", "id": 4269944688, "lat": 34.0505761, "lon": -118.2422985}, {"type": "node", "id": 4269944695, "lat": 34.0506235, "lon": -118.242156}, {"type": "node", "id": 4269944699, "lat": 34.0506382, "lon": -118.2422562}, {"type": "node", "id": 4269944704, "lat": 34.0506377, "lon": -118.2421687}, {"type": "node", "id": 4269944707, "lat": 34.0506501, "lon": -118.2422369}, {"type": "node", "id": 4269944708, "lat": 34.0506447, "lon": -118.2421787}, {"type": "node", "id": 4269944710, "lat": 34.0506503, "lon": -118.2421914}, {"type": "node", "id": 4269944711, "lat": 34.050654, "lon": -118.2422181}, {"type": "node", "id": 4269944712, "lat": 34.0506533, "lon": -118.242204}, {"type": "node", "id": 4271070595, "lat": 34.045955, "lon": -118.2541145, "tags": {"addr:city": "Los Angeles", "addr:housenumber": "639", "addr:postcode": "90013", "addr:state": "CA", "addr:street": "South Broadway;South Hill Street", "name": "St. Vincent Jewelry", "shop": "jewelry", "website": "http://dtlaglam.com/"}}, {"type": "node", "id": 4271071285, "lat": 34.0464446, "lon": -118.2515584}, {"type": "node", "id": 4271071312, "lat": 34.046609, "lon": -118.2514057}, {"type": "node", "id": 4271071315, "lat": 34.0466284, "lon": -118.2514365}, {"type": "node", "id": 4271071321, "lat": 34.046648, "lon": -118.2518699}, {"type": "node", "id": 4271071332, "lat": 34.0466894, "lon": -118.251827}, {"type": "node", "id": 4271071333, "lat": 34.0466912, "lon": -118.2518297}, {"type": "node", "id": 4271071346, "lat": 34.0467673, "lon": -118.2517542}, {"type": "node", "id": 4271071347, "lat": 34.0467695, "lon": -118.2517576}, {"type": "node", "id": 4271071353, "lat": 34.046808, "lon": -118.2517216}, {"type": "node", "id": 4271071832, "lat": 34.0499615, "lon": -118.2481528}, {"type": "node", "id": 4271071865, "lat": 34.0500483, "lon": -118.2480722}, {"type": "node", "id": 4271071872, "lat": 34.0500721, "lon": -118.2481089}, {"type": "node", "id": 4271071910, "lat": 34.0502163, "lon": -118.2485403}, {"type": "node", "id": 4271071926, "lat": 34.0503035, "lon": -118.2484587}, {"type": "node", "id": 4271752676, "lat": 34.0467606, "lon": -118.2591119}, {"type": "node", "id": 4271752682, "lat": 34.0467644, "lon": -118.2590484}, {"type": "node", "id": 4271752814, "lat": 34.0468239, "lon": -118.259231}, {"type": "node", "id": 4271752817, "lat": 34.0468279, "lon": -118.2592069}, {"type": "node", "id": 4271752838, "lat": 34.0468549, "lon": -118.25895}, {"type": "node", "id": 4271752839, "lat": 34.0468558, "lon": -118.2589293}, {"type": "node", "id": 4271753064, "lat": 34.047165, "lon": -118.2597596}, {"type": "node", "id": 4271753080, "lat": 34.0471867, "lon": -118.2597637}, {"type": "node", "id": 4271753124, "lat": 34.0472537, "lon": -118.2598659}, {"type": "node", "id": 4271753158, "lat": 34.0473099, "lon": -118.259874}, {"type": "node", "id": 4271753190, "lat": 34.0473612, "lon": -118.2584586}, {"type": "node", "id": 4271753203, "lat": 34.0473955, "lon": -118.2597961}, {"type": "node", "id": 4271753217, "lat": 34.0474136, "lon": -118.258434}, {"type": "node", "id": 4271753221, "lat": 34.0474148, "lon": -118.2597991}, {"type": "node", "id": 4271753223, "lat": 34.0474162, "lon": -118.258461}, {"type": "node", "id": 4271753231, "lat": 34.0474258, "lon": -118.2584506}, {"type": "node", "id": 4271753606, "lat": 34.0479226, "lon": -118.2593256}, {"type": "node", "id": 4271753608, "lat": 34.0479326, "lon": -118.259264}, {"type": "node", "id": 4271753613, "lat": 34.0479437, "lon": -118.2592533}, {"type": "node", "id": 4271753615, "lat": 34.0479492, "lon": -118.257934}, {"type": "node", "id": 4271753617, "lat": 34.0479565, "lon": -118.2592729}, {"type": "node", "id": 4271753785, "lat": 34.048491, "lon": -118.2587748}, {"type": "node", "id": 4520429431, "lat": 34.0474904, "lon": -118.2524848, "tags": {"addr:city": "Los Angeles", "addr:country": "US", "addr:housenumber": "550", "addr:postcode": "90013", "addr:state": "CA", "addr:street": "South Hill Street", "addr:suite": "1314", "name": "Delphi Jewelry", "operator": "Bharat Ahir", "phone": "+1-213-622-2094", "shop": "jewelry", "website": "http://delphijewelryusa.com"}}, {"type": "node", "id": 4728719490, "lat": 34.0436787, "lon": -118.248214, "tags": {"name": "Tufesa Downtown Los Angeles", "operator": "Tufesa", "shop": "ticket", "ticket": "bus"}}, {"type": "node", "id": 4885688166, "lat": 34.0457301, "lon": -118.2509874, "tags": {"addr:city": "Los Angeles", "addr:country": "US", "addr:housenumber": "600", "addr:street": "South Spring Street", "name": "Spring Street Mac", "phone": "+1 213 622 5008", "shop": "computer", "website": "https://springstreetmac.com/"}}, {"type": "node", "id": 4885688167, "lat": 34.0461212, "lon": -118.2506427, "tags": {"addr:country": "US", "name": "Pet Project", "shop": "pet"}}, {"type": "node", "id": 4885688168, "lat": 34.0461557, "lon": -118.2514782, "tags": {"addr:country": "US", "name": "6th Street Market", "shop": "convenience"}}, {"type": "node", "id": 4946311923, "lat": 34.048939, "lon": -118.239938, "tags": {"name": "Tokyo Japanese Lifestyle", "shop": "clothes"}}, {"type": "node", "id": 4946318822, "lat": 34.0487979, "lon": -118.2401698, "tags": {"name": "Nijiya Market", "shop": "supermarket"}}, {"type": "node", "id": 4980809623, "lat": 34.041511, "lon": -118.2547151, "tags": {"name": "Pop-Up Shop LosAngeles", "shop": "shoes"}}, {"type": "node", "id": 4984040950, "lat": 34.0422777, "lon": -118.25359, "tags": {"addr:city": "Los Angeles", "addr:housenumber": "818", "addr:postcode": "90014", "addr:state": "CA", "addr:street": "South Main Street", "name": "Road Runner Bags", "opening_hours": "Mo-Fr 10:00-19:00, Sa 11:00-17:00", "shop": "bag", "website": "https://roadrunnerbags.us/"}}, {"type": "node", "id": 5102682743, "lat": 34.0485214, "lon": -118.2449759, "tags": {"name": "Auto Part & Accessories Wholesale", "shop": "car_parts"}}, {"type": "node", "id": 5309679953, "lat": 34.035709, "lon": -118.240745, "tags": {"addr:city": "Los Angeles", "addr:country": "US", "addr:housenumber": "1318", "addr:postcode": "90021", "addr:state": "CA", "addr:street": "7th Street", "addr:unit": "118", "name": "Bridge & Burn DTLA", "opening_hours": "We-Sa 11:00-18:00; Su 11:00-17:00", "phone": "+1-213-278-0455", "shop": "clothes", "start_date": "2010", "website": "https://www.bridgeandburn.com"}}, {"type": "node", "id": 5335740031, "lat": 34.0516677, "lon": -118.2512683, "tags": {"name": "Stems", "shop": "florist"}}, {"type": "node", "id": 5335740032, "lat": 34.0516176, "lon": -118.2515483, "tags": {"name": "R. P. Hoffman", "shop": "optician"}}, {"type": "node", "id": 5335748587, "lat": 34.0517286, "lon": -118.2515769, "tags": {"name": "Shoemaster", "shop": "shoes"}}, {"type": "node", "id": 5572386044, "lat": 34.048037, "lon": -118.257409, "tags": {"addr:housenumber": "617", "addr:street": "W 7th St", "brand": "Walgreens", "brand:wikidata": "Q1591889", "brand:wikipedia": "en:Walgreens", "name": "Walgreens", "opening_hours": "Mo-Fr 06:30-23:00; Sa, Su 08:00-22:00", "phone": "213-694-2880", "shop": "chemist", "website": "walgreens.com"}}, {"type": "node", "id": 5583404379, "lat": 34.0480364, "lon": -118.238779, "tags": {"addr:housenumber": "401", "addr:street": "East 2nd Street", "brand": "Office Depot", "brand:wikidata": "Q1337797", "brand:wikipedia": "en:The ODP Corporation", "name": "Office Depot", "phone": "213 628 5000", "shop": "stationery"}}, {"type": "node", "id": 5693843869, "lat": 34.037208, "lon": -118.2554975, "tags": {"addr:city": "Los Angeles", "addr:housenumber": "1103", "addr:postcode": "90015", "addr:state": "CA", "addr:street": "Maple Avenue", "name": "Callejon All Star", "shop": "clothes"}}, {"type": "node", "id": 5695373442, "lat": 34.0447295, "lon": -118.2523399, "tags": {"name": "Floyd's Barber Shop", "shop": "hairdresser", "wheelchair": "yes"}}, {"type": "node", "id": 5744419321, "lat": 34.0434469, "lon": -118.254754, "tags": {"brand": "Urban Outfitters", "brand:wikidata": "Q3552193", "brand:wikipedia": "en:Urban Outfitters", "name": "Urban Outfitters", "shop": "clothes"}}, {"type": "node", "id": 5754663123, "lat": 34.0488198, "lon": -118.2412799, "tags": {"name": "RIF", "shop": "shoes"}}, {"type": "node", "id": 5965445321, "lat": 34.0476802, "lon": -118.2396171, "tags": {"addr:city": "Los Angeles", "addr:country": "US", "addr:housenumber": "374", "addr:postcode": "90012", "addr:state": "CA", "addr:street": "East 2nd Street", "description": "Design studio that curates a line of artsy gifts and stationery, famous for their artist collaboration wallets", "name": "Poketo Little Tokyo", "opening_hours": "Mo 12:00-19:00; Tu-Su 11:00-19:00", "operator": "Poketo", "payment:credit_cards": "yes", "phone": "+1-213-537-0751", "shop": "stationery", "website": "https://www.poketo.com"}}, {"type": "node", "id": 6486172727, "lat": 34.0442778, "lon": -118.2552169, "tags": {"addr:city": "Los Angeles", "addr:housenumber": "323", "addr:postcode": "90014", "addr:state": "CA", "addr:street": "West 8th Street", "brand": "COS", "brand:wikidata": "Q60772401", "brand:wikipedia": "en:COS (clothing)", "name": "COS", "shop": "clothes"}}, {"type": "node", "id": 6486177531, "lat": 34.0433777, "lon": -118.2548629, "tags": {"addr:city": "Los Angeles", "addr:housenumber": "816", "addr:postcode": "90014", "addr:state": "CA", "addr:street": "South Broadway", "name": "Gentle Monster", "shop": "clothes"}}, {"type": "node", "id": 6486183114, "lat": 34.0427065, "lon": -118.2559653, "tags": {"addr:city": "Los Angeles", "addr:housenumber": "847", "addr:postcode": "90014", "addr:state": "CA", "addr:street": "South Broadway", "name": "Mykita", "shop": "clothes"}}, {"type": "node", "id": 6486190597, "lat": 34.0461402, "lon": -118.252296, "tags": {"addr:city": "Los Angeles", "addr:country": "US", "addr:housenumber": "622", "addr:postcode": "90014", "addr:state": "CA", "addr:street": "South Broadway", "name": "Jordan Flagship Store", "shop": "clothes"}}, {"type": "node", "id": 7021856793, "lat": 34.0451542, "lon": -118.2481843, "tags": {"name": "Mega Wireless Accessories", "shop": "mobile_phone"}}, {"type": "node", "id": 7057259728, "lat": 34.0474997, "lon": -118.2583541}, {"type": "node", "id": 7159876434, "lat": 34.0446919, "lon": -118.254118, "tags": {"addr:city": "Los Angeles", "addr:housenumber": "719", "addr:postcode": "90014", "addr:state": "CA", "addr:street": "South Broadway", "brand": "Ross", "brand:wikidata": "Q3442791", "brand:wikipedia": "en:Ross Stores", "name": "Ross", "official_name": "Ross Dress for Less", "opening_hours": "Mo-Th 08:00-20:30; Fr-Su 08:30-20:30", "payment:cash": "yes", "payment:credit_cards": "yes", "payment:debit_cards": "yes", "phone": "+1-213-243-5744", "shop": "department_store"}}, {"type": "node", "id": 7590517186, "lat": 34.0466468, "lon": -118.2508064, "tags": {"name": "Gelateria Uli", "shop": "confectionery"}}, {"type": "node", "id": 8309266244, "lat": 34.0500875, "lon": -118.2421563}, {"type": "node", "id": 8309266246, "lat": 34.0500505, "lon": -118.242346}, {"type": "node", "id": 8309266247, "lat": 34.0501215, "lon": -118.2420592}, {"type": "node", "id": 8309266262, "lat": 34.0499594, "lon": -118.2425475, "tags": {"amenity": "parking_entrance"}}, {"type": "node", "id": 8384716789, "lat": 34.0493337, "lon": -118.258426, "tags": {"amenity": "post_office", "brand": "FedEx Office", "brand:wikidata": "Q474379", "brand:wikipedia": "en:FedEx Office", "name": "FedEx Office", "shop": "copyshop"}}, {"type": "node", "id": 8395378218, "lat": 34.0455384, "lon": -118.253562, "tags": {"alt_name": "Burlington Coat Factory", "brand": "Burlington", "brand:wikidata": "Q4999220", "brand:wikipedia": "en:Burlington (department store)", "name": "Burlington", "shop": "department_store"}}, {"type": "node", "id": 8395378221, "lat": 34.0468823, "lon": -118.2533373, "tags": {"name": "Fox Jewelry Plaza", "shop": "jewelry"}}, {"type": "node", "id": 8406571034, "lat": 34.0445878, "lon": -118.256215, "tags": {"brand": "Paris Baguette", "brand:wikidata": "Q62605260", "name": "Paris Baguette", "shop": "bakery"}}, {"type": "node", "id": 8406620939, "lat": 34.045885, "lon": -118.254724, "tags": {"addr:city": "Los Angeles", "addr:housenumber": "404", "addr:postcode": "90013", "addr:state": "CA", "addr:street": "West 7th Street", "name": "Mitaa Jewelry center", "shop": "jewelry"}}, {"type": "node", "id": 8461651376, "lat": 34.0451831, "lon": -118.2385995, "tags": {"addr:city": "Los Angeles", "addr:housenumber": "333", "addr:postcode": "90013", "addr:state": "CA", "addr:street": "South Alameda Street", "addr:unit": "113", "brand": "Daiso", "brand:wikidata": "Q866991", "brand:wikipedia": "en:Daiso", "level": "1", "name": "Daiso Japan", "shop": "variety_store", "short_name": "Daiso"}}, {"type": "node", "id": 8461651379, "lat": 34.0453608, "lon": -118.2385213, "tags": {"addr:city": "Los Angeles", "addr:housenumber": "333", "addr:postcode": "90013", "addr:state": "CA", "addr:street": "South Alameda Street", "addr:unit": "112", "level": "1", "name": "KJ Korea", "shop": "yes"}}, {"type": "node", "id": 8461651381, "lat": 34.0455235, "lon": -118.2385537, "tags": {"addr:city": "Los Angeles", "addr:housenumber": "333", "addr:postcode": "90013", "addr:state": "CA", "addr:street": "South Alameda Street", "addr:unit": "106", "cuisine": "japanese", "level": "1", "name": "Beard Papa's", "shop": "bakery"}}, {"type": "node", "id": 8461651387, "lat": 34.0453097, "lon": -118.2387248, "tags": {"addr:city": "Los Angeles", "addr:housenumber": "333", "addr:postcode": "90013", "addr:state": "CA", "addr:street": "South Alameda Street", "addr:unit": "202", "layer": "2", "level": "2", "name": "Super Health", "shop": "yes"}}, {"type": "node", "id": 8461651388, "lat": 34.0455484, "lon": -118.238619, "tags": {"addr:city": "Los Angeles", "addr:housenumber": "333", "addr:postcode": "90013", "addr:state": "CA", "addr:street": "South Alameda Street", "addr:unit": "206-207", "layer": "2", "level": "2", "name": "Homemart", "shop": "houseware"}}, {"type": "node", "id": 8461651393, "lat": 34.0452152, "lon": -118.2384612, "tags": {"addr:city": "Los Angeles", "addr:housenumber": "333", "addr:postcode": "90013", "addr:state": "CA", "addr:street": "South Alameda Street", "addr:unit": "211", "layer": "2", "level": "2", "name": "White Stone", "shop": "yes"}}, {"type": "node", "id": 8461651394, "lat": 34.0452295, "lon": -118.2384981, "tags": {"addr:city": "Los Angeles", "addr:housenumber": "333", "addr:postcode": "90013", "addr:state": "CA", "addr:street": "South Alameda Street", "addr:unit": "210", "layer": "2", "level": "2", "name": "Dorcas", "shop": "yes"}}, {"type": "node", "id": 8461651395, "lat": 34.0452396, "lon": -118.238534, "tags": {"addr:city": "Los Angeles", "addr:housenumber": "333", "addr:postcode": "90013", "addr:state": "CA", "addr:street": "South Alameda Street", "addr:unit": "217", "layer": "2", "level": "2", "name": "Lora's Hair Salon", "shop": "hairdresser"}}, {"type": "node", "id": 8461651396, "lat": 34.045252, "lon": -118.2385751, "tags": {"addr:city": "Los Angeles", "addr:housenumber": "333", "addr:postcode": "90013", "addr:state": "CA", "addr:street": "South Alameda Street", "addr:unit": "209", "layer": "2", "level": "2", "name": "Dorcas", "shop": "yes"}}, {"type": "node", "id": 8461651397, "lat": 34.045414, "lon": -118.2386749, "tags": {"addr:city": "Los Angeles", "addr:housenumber": "333", "addr:postcode": "90013", "addr:state": "CA", "addr:street": "South Alameda Street", "addr:unit": "203", "layer": "2", "level": "2", "name": "RSG", "shop": "yes"}}, {"type": "node", "id": 8461651398, "lat": 34.0454463, "lon": -118.2386578, "tags": {"addr:city": "Los Angeles", "addr:housenumber": "333", "addr:postcode": "90013", "addr:state": "CA", "addr:street": "South Alameda Street", "addr:unit": "204", "entrance": "yes", "layer": "2", "level": "2", "name": "Poom Gems", "shop": "yes"}}, {"type": "node", "id": 8461651399, "lat": 34.0454868, "lon": -118.2386375, "tags": {"addr:city": "Los Angeles", "addr:housenumber": "333", "addr:postcode": "90013", "addr:state": "CA", "addr:street": "South Alameda Street", "addr:unit": "205", "entrance": "yes", "layer": "2", "level": "2", "name": "RSG Merchandise", "shop": "yes"}}, {"type": "node", "id": 8792675617, "lat": 34.049534, "lon": -118.2399873, "tags": {"name": "Bunkado", "shop": "gift"}}, {"type": "node", "id": 8971320821, "lat": 34.047877, "lon": -118.2506609, "tags": {"brand": "Rite Aid", "brand:wikidata": "Q3433273", "brand:wikipedia": "en:Rite Aid", "name": "Rite Aid", "shop": "chemist"}}, {"type": "node", "id": 8971320822, "lat": 34.0480915, "lon": -118.2504584, "tags": {"brand": "Walgreens", "brand:wikidata": "Q1591889", "brand:wikipedia": "en:Walgreens", "name": "Walgreens", "shop": "chemist"}}, {"type": "node", "id": 9370691871, "lat": 34.048134, "lon": -118.258222}, {"type": "node", "id": 9509465524, "lat": 34.0502112, "lon": -118.2420772}, {"type": "node", "id": 9694890438, "lat": 34.0474814, "lon": -118.25258, "tags": {"addr:city": "Los Angeles", "addr:housenumber": "550", "addr:postcode": "90013", "addr:state": "CA", "addr:street": "South Hill Street", "addr:unit": "725", "name": "Oscar's Design Jewelry and Diamonds", "opening_hours": "Mo-Fr 10:00-17:00", "payment:american_express": "yes", "payment:cash": "yes", "payment:discover_card": "yes", "payment:mastercard": "yes", "payment:visa": "yes", "phone": "+1 213-622-1200", "shop": "jewelry", "website": "https://oscaring.com"}}, {"type": "node", "id": 9838908254, "lat": 34.0456626, "lon": -118.2433901, "tags": {"addr:city": "Los Angeles", "addr:country": "US", "addr:housenumber": "411", "addr:postcode": "90013", "addr:state": "CA", "addr:street": "San Pedro Street", "name": "Vin Vin Creative Craft", "opening_hours": "Mo-Sa09:00-16:30, Su 10:00-14:00", "payment:american_express": "yes", "payment:cash": "yes", "payment:cheque": "yes", "payment:discover_card": "yes", "payment:mastercard": "yes", "payment:visa": "yes", "phone": "+1 213-687-8278", "shop": "party", "start_date": "2005", "website": "https://www.craft99.com"}}, {"type": "node", "id": 9873815780, "lat": 34.0367051, "lon": -118.257394, "tags": {"addr:city": "Los Angeles", "addr:housenumber": "1149", "addr:postcode": "90015", "addr:state": "CA", "addr:street": "Santee Street", "clothes": "tuxedo;suits", "email": "bermudausa@yahoo.com", "name": "Angelino", "opening_hours": "Mo-Fr 10:00-16:00", "payment:cash": "yes", "payment:credit_cards": "yes", "payment:paypal": "yes", "phone": "+1 213-622-0915", "shop": "clothes", "website": "https://angelino.us"}}, {"type": "node", "id": 9901077529, "lat": 34.0491613, "lon": -118.2406831, "tags": {"entrance": "main"}}, {"type": "node", "id": 9914370866, "lat": 34.0474198, "lon": -118.252698, "tags": {"addr:city": "Los Angeles", "addr:country": "US", "addr:housenumber": "550", "addr:postcode": "90013", "addr:state": "CA", "addr:street": "South Hill Street", "addr:unit": "920", "contact:phone": "+1 213-623-3313", "contact:website": "https://www.globalringsjewelry.com", "name": "Global Rings Jewelry", "opening_hours": "Mo-Th 09:30-17:30; Fr 09:00-17:30; Sa 09:00-15:00", "payment:american_express": "yes", "payment:cash": "yes", "payment:cheque": "yes", "payment:discover_card": "yes", "payment:mastercard": "yes", "payment:visa": "yes", "shop": "jewelry"}}, {"type": "node", "id": 9918003717, "lat": 34.0471909, "lon": -118.2479139, "tags": {"addr:housenumber": "440", "addr:street": "South Main Street", "name": "Manly & Sons Barber Company", "opening_hours": "Mo-Su 10:00-20:00", "shop": "hairdresser"}}, {"type": "node", "id": 10079468851, "lat": 34.0500835, "lon": -118.2425717}, {"type": "node", "id": 10128527534, "lat": 34.0502692, "lon": -118.2553737, "tags": {"name": "The Library Store", "shop": "gift", "website": "https://shop.lfla.org/"}}, {"type": "node", "id": 10138374547, "lat": 34.0490902, "lon": -118.2399657, "tags": {"name": "Maneki Neko", "shop": "gift"}}, {"type": "node", "id": 10138374554, "lat": 34.0487267, "lon": -118.2411332, "tags": {"brand": "Shoe Palace", "brand:wikidata": "Q105046966", "name": "Shoe Palace", "shop": "shoes"}}, {"type": "node", "id": 10138374558, "lat": 34.0509277, "lon": -118.2419364, "tags": {"name": "California Floral", "shop": "florist"}}, {"type": "node", "id": 10138374559, "lat": 34.0499617, "lon": -118.2423663, "tags": {"name": "Kimono Ya", "shop": "gift"}}, {"type": "node", "id": 10301708311, "lat": 34.049041, "lon": -118.2400093, "tags": {"name": "Sanrio", "shop": "gift"}}, {"type": "node", "id": 10301708313, "lat": 34.0488354, "lon": -118.2402877, "tags": {"name": "Make Asobi", "shop": "cosmetics"}}, {"type": "node", "id": 10301708314, "lat": 34.0488533, "lon": -118.2406523, "tags": {"name": "Japangeles", "shop": "clothes"}}, {"type": "node", "id": 10301708326, "lat": 34.049879, "lon": -118.2421844, "tags": {"name": "K Pop Music Town", "shop": "gift"}}, {"type": "way", "id": 427817473, "nodes": [4269944450, 4269944484, 4269944474, 4269944496, 4269944505, 4269944540, 4269944541, 8309266244, 4269944546, 4269944550, 4269944556, 4269944562, 4269944566, 4269944571, 4269944573, 4269944578, 4269944610, 4269944608, 4269944582, 4269944579, 4269944577, 4269944574, 4269944543, 4269944545, 8309266246, 4269944460, 4269944467, 4269944461, 4269944463, 4269944447, 4269944450]}, {"type": "way", "id": 427817480, "nodes": [4269944323, 4269944333, 4269944440, 4269944444, 8309266262, 4269944483, 4269944480, 4269944481, 4269944485, 4269944487, 4269944493, 4269944494, 4269944499, 4269944507, 4269944512, 4269944519, 4269944524, 4269944528, 4269944531, 4269944533, 4269944534, 10079468851, 4269944544, 4269944598, 4269944603, 4269944617, 4269944688, 4269944699, 4269944707, 4269944711, 4269944712, 4269944710, 4269944708, 4269944704, 4269944695, 9509465524, 8309266247, 4269944363, 4269944353, 4269944349, 4269944342, 4269944339, 4269944334, 4269944329, 4269944323]}, {"type": "way", "id": 427817545, "nodes": [4269944126, 9901077529, 4269944101, 4269944105, 4269944210, 4269944279, 4269944293, 4269944312, 4269944320, 4269944371, 4269944356, 4269944364, 4269944338, 4269944335, 4269944275, 4269944159, 4269944131, 4269944128, 4269944102, 4269944126], "tags": {"building": "yes", "ele": "111.7", "height": "29.4", "lacounty:ain": "5161017034", "lacounty:bld_id": "488672840440;488717840447;488742840532", "name": "Little Tokyo Mall", "shop": "mall", "start_date": "1989"}}, {"type": "way", "id": 427942849, "nodes": [4271071312, 4271071285, 4271071321, 4271071333, 4271071332, 4271071346, 4271071347, 4271071353, 4271071315, 4271071312], "tags": {"addr:city": "Los Angeles", "addr:housenumber": "556", "addr:postcode": "90013", "addr:state": "CA", "addr:street": "South Broadway", "building": "commercial", "ele": "109.5", "height": "28.8", "lacounty:ain": "5149035011", "lacounty:bld_id": "485453839470", "shop": "department_store", "start_date": "1921"}}, {"type": "way", "id": 427942962, "nodes": [4271071872, 4271071865, 4271071832, 4271071910, 4271071926, 4271071872], "tags": {"access": "yes", "addr:city": "Los Angeles", "addr:housenumber": "324", "addr:postcode": "90013", "addr:state": "CA", "addr:street": "South Broadway", "building": "retail", "building:levels": "2", "contact:phone": "+1-213-626-1897", "contact:website": "http://rosscutlery.com/", "ele": "91.3", "height": "5.8", "lacounty:ain": "5149019014", "lacounty:bld_id": "486415840738", "name": "Ross Cutlery", "opening_hours": "Mo-Fr 09:00-18:00", "shop": "knife"}}, {"type": "way", "id": 428021795, "nodes": [4271753221, 4271753606, 4271753608, 4271753613, 4271753617, 2895290578, 4271753785, 2895290580, 9370691871, 4271753615, 7057259728, 4271753217, 4271753231, 4271753223, 4271753190, 4271752839, 4271752838, 4271752682, 4271752676, 4271752817, 4271752814, 4271753064, 4271753080, 4271753124, 4271753158, 4271753203, 4271753221], "tags": {"access": "private", "addr:city": "Los Angeles", "addr:housenumber": "700", "addr:postcode": "90017", "addr:state": "CA", "addr:street": "West 7th Street", "building": "yes", "building:levels": "2", "ele": "217.0", "lacounty:ain": "5144010406", "lacounty:bld_id": "483259840014", "landuse": "retail", "name": "The Bloc", "shop": "mall"}}, {"type": "relation", "id": 6363656, "members": [{"type": "way", "ref": 427817473, "role": "inner"}, {"type": "way", "ref": 427817480, "role": "outer"}], "tags": {"building": "yes", "ele": "101.3", "height": "19.1", "lacounty:ain": "5161016024;5161016019", "lacounty:bld_id": "488300840660;488196840727", "name": "Weller Court", "shop": "mall", "type": "multipolygon"}}]}